STARLINK-5268           
1 54192U 22141AM  26068.17229659  .00002944  00000+0  20290-3 0  9998
2 54192  53.2195 356.1698 0001460  89.4998 270.6161 15.08851902185921
LEMUR-2-AHMED-ASRAR     
1 60576U 24149DN  26068.73265438  .00013045  00000+0  79773-3 0  9992
2 60576  97.7021 152.9847 0001633  18.5035 341.6253 15.10376432 85541
