[{"OBJECT_NAME":"STARLINK-5268","OBJECT_ID":"2022-141AM","EPOCH":"2026-03-09T04:08:06.425376","MEAN_MOTION":15.08851902,"ECCENTRICITY":0.00014608,"INCLINATION":53.2195,"RA_OF_ASC_NODE":356.1698,"ARG_OF_PERICENTER":89.4998,"MEAN_ANOMALY":270.6161,"EPHEMERIS_TYPE":0,"CLASSIFICATION_TYPE":"U","NORAD_CAT_ID":54192,"ELEMENT_SET_NO":999,"REV_AT_EPOCH":18592,"BSTAR":0.00020290201,"MEAN_MOTION_DOT":2.944e-5,"MEAN_MOTION_DDOT":0},{"OBJECT_NAME":"LEMUR-2-AHMED-ASRAR","OBJECT_ID":"2024-149DN","EPOCH":"2026-03-09T17:35:01.338432","MEAN_MOTION":15.10376432,"ECCENTRICITY":0.00016334,"INCLINATION":97.7021,"RA_OF_ASC_NODE":152.9847,"ARG_OF_PERICENTER":18.5035,"MEAN_ANOMALY":341.6253,"EPHEMERIS_TYPE":0,"CLASSIFICATION_TYPE":"U","NORAD_CAT_ID":60576,"ELEMENT_SET_NO":999,"REV_AT_EPOCH":8554,"BSTAR":0.0007977347,"MEAN_MOTION_DOT":0.00013045,"MEAN_MOTION_DDOT":0}]
